{"type": "FeatureCollection", "features": [ {"type": "Feature", "properties": {"norad_id": 40115, "name": "WORLDVIEW-3 (WV-3)", "group": "resource", "lat": -9.796757134145187, "lon": 58.09174614849819, "alt_km": 619.1646001229155, "timestamp": "2025-12-10T09:57:44.361471+00:00", "meta": {"OBJECT_NAME": "WORLDVIEW-3 (WV-3)", "OBJECT_ID": "2014-048A", "EPOCH": "2025-12-10T05:09:25.030656", "MEAN_MOTION": 14.85501087, "ECCENTRICITY": 0.0004553, "INCLINATION": 97.8618, "RA_OF_ASC_NODE": 56.5269, "ARG_OF_PERICENTER": 193.368, "MEAN_ANOMALY": 166.7415, "EPHEMERIS_TYPE": 0, "CLASSIFICATION_TYPE": "U", "NORAD_CAT_ID": 40115, "ELEMENT_SET_NO": 999, "REV_AT_EPOCH": 61386, "BSTAR": 0.00020833, "MEAN_MOTION_DOT": 1.745e-05, "MEAN_MOTION_DDOT": 0}, "tle": {"line1": "1 40115U 14048A   25344.21487304  .00001745  00000+0  20833-3 0  9990", "line2": "2 40115  97.8618  56.5269 0004553 193.3680 166.7415 14.85501087613865"}}, "geometry": {"type": "Point", "coordinates": [58.09174614849819, -9.796757134145187]}}, {"type": "Feature", "properties": {"norad_id": 40118, "name": "GAOFEN-2", "group": "resource", "lat": -28.4349315353999, "lon": -140.80949696895902, "alt_km": 633.2401299020003, "timestamp": "2025-12-10T09:57:44.361481+00:00", "meta": {"OBJECT_NAME": "GAOFEN-2", "OBJECT_ID": "2014-049A", "EPOCH": "2025-12-10T04:09:28.296288", "MEAN_MOTION": 14.80599609, "ECCENTRICITY": 0.000844, "INCLINATION": 98.0383, "RA_OF_ASC_NODE": 43.3369, "ARG_OF_PERICENTER": 119.9536, "MEAN_ANOMALY": 240.2514, "EPHEMERIS_TYPE": 0, "CLASSIFICATION_TYPE": "U", "NORAD_CAT_ID": 40118, "ELEMENT_SET_NO": 999, "REV_AT_EPOCH": 61126, "BSTAR": 9.8589e-05, "MEAN_MOTION_DOT": 7.03e-06, "MEAN_MOTION_DDOT": 0}, "tle": {"line1": "1 40118U 14049A   25344.17324417  .00000703  00000+0  98589-4 0  9991", "line2": "2 40118  98.0383  43.3369 0008440 119.9536 240.2514 14.80599609611260"}}, "geometry": {"type": "Point", "coordinates": [-140.80949696895902, -28.4349315353999]}}, {"type": "Feature", "properties": {"norad_id": 40143, "name": "YAOGAN-21", "group": "resource", "lat": 7.319255563509856, "lon": -151.24445290202107, "alt_km": 500.79091685053663, "timestamp": "2025-12-10T09:57:44.361491+00:00", "meta": {"OBJECT_NAME": "YAOGAN-21", "OBJECT_ID": "2014-053A", "EPOCH": "2025-12-10T04:28:47.201088", "MEAN_MOTION": 15.23628584, "ECCENTRICITY": 0.0009883, "INCLINATION": 97.1758, "RA_OF_ASC_NODE": 27.6098, "ARG_OF_PERICENTER": 49.2754, "MEAN_ANOMALY": 310.9341, "EPHEMERIS_TYPE": 0, "CLASSIFICATION_TYPE": "U", "NORAD_CAT_ID": 40143, "ELEMENT_SET_NO": 999, "REV_AT_EPOCH": 62615, "BSTAR": 0.0003222, "MEAN_MOTION_DOT": 7.663e-05, "MEAN_MOTION_DDOT": 0}, "tle": {"line1": "1 40143U 14053A   25344.18665742  .00007663  00000+0  32220-3 0  9995", "line2": "2 40143  97.1758  27.6098 0009883  49.2754 310.9341 15.23628584626157"}}, "geometry": {"type": "Point", "coordinates": [-151.24445290202107, 7.319255563509856]}}, {"type": "Feature", "properties": {"norad_id": 40275, "name": "YAOGAN-22", "group": "resource", "lat": -52.42721538895186, "lon": 142.08550575167473, "alt_km": 1205.9215951558917, "timestamp": "2025-12-10T09:57:44.361502+00:00", "meta": {"OBJECT_NAME": "YAOGAN-22", "OBJECT_ID": "2014-063A", "EPOCH": "2025-12-10T01:06:32.186304", "MEAN_MOTION": 13.15522525, "ECCENTRICITY": 0.0005941, "INCLINATION": 100.7419, "RA_OF_ASC_NODE": 127.4277, "ARG_OF_PERICENTER": 254.8753, "MEAN_ANOMALY": 105.1702, "EPHEMERIS_TYPE": 0, "CLASSIFICATION_TYPE": "U", "NORAD_CAT_ID": 40275, "ELEMENT_SET_NO": 999, "REV_AT_EPOCH": 53494, "BSTAR": 0.00011355, "MEAN_MOTION_DOT": -4e-08, "MEAN_MOTION_DDOT": 0}, "tle": {"line1": "1 40275U 14063A   25344.04620586 -.00000004  00000+0  11355-3 0  9993", "line2": "2 40275 100.7419 127.4277 0005941 254.8753 105.1702 13.15522525534947"}}, "geometry": {"type": "Point", "coordinates": [142.08550575167473, -52.42721538895186]}}, {"type": "Feature", "properties": {"norad_id": 40298, "name": "ASNARO", "group": "resource", "lat": -73.66529403657536, "lon": -145.77074420580834, "alt_km": 517.1786309393365, "timestamp": "2025-12-10T09:57:44.361512+00:00", "meta": {"OBJECT_NAME": "ASNARO", "OBJECT_ID": "2014-070A", "EPOCH": "2025-12-10T04:06:01.698336", "MEAN_MOTION": 15.19403771, "ECCENTRICITY": 0.000539, "INCLINATION": 97.3649, "RA_OF_ASC_NODE": 60.1799, "ARG_OF_PERICENTER": 129.3547, "MEAN_ANOMALY": 230.8166, "EPHEMERIS_TYPE": 0, "CLASSIFICATION_TYPE": "U", "NORAD_CAT_ID": 40298, "ELEMENT_SET_NO": 999, "REV_AT_EPOCH": 61530, "BSTAR": 0.00064182, "MEAN_MOTION_DOT": 0.0001354, "MEAN_MOTION_DDOT": 0}, "tle": {"line1": "1 40298U 14070A   25344.17085299  .00013540  00000+0  64182-3 0  9990", "line2": "2 40298  97.3649  60.1799 0005390 129.3547 230.8166 15.19403771615302"}}, "geometry": {"type": "Point", "coordinates": [-145.77074420580834, -73.66529403657536]}}, {"type": "Feature", "properties": {"norad_id": 40310, "name": "YAOGAN-24", "group": "resource", "lat": -48.85235423143944, "lon": -73.91091129846573, "alt_km": 647.326962711506, "timestamp": "2025-12-10T09:57:44.361522+00:00", "meta": {"OBJECT_NAME": "YAOGAN-24", "OBJECT_ID": "2014-072A", "EPOCH": "2025-12-10T04:02:48.468192", "MEAN_MOTION": 14.76166401, "ECCENTRICITY": 0.0014618, "INCLINATION": 98.1225, "RA_OF_ASC_NODE": 115.248, "ARG_OF_PERICENTER": 145.6905, "MEAN_ANOMALY": 214.5251, "EPHEMERIS_TYPE": 0, "CLASSIFICATION_TYPE": "U", "NORAD_CAT_ID": 40310, "ELEMENT_SET_NO": 999, "REV_AT_EPOCH": 59583, "BSTAR": 0.00013309, "MEAN_MOTION_DOT": 8.68e-06, "MEAN_MOTION_DDOT": 0}, "tle": {"line1": "1 40310U 14072A   25344.16861653  .00000868  00000+0  13309-3 0  9996", "line2": "2 40310  98.1225 115.2480 0014618 145.6905 214.5251 14.76166401595834"}}, "geometry": {"type": "Point", "coordinates": [-73.91091129846573, -48.85235423143944]}}, {"type": "Feature", "properties": {"norad_id": 40336, "name": "CBERS 4", "group": "resource", "lat": -49.8278063729953, "lon": 52.50619479168178, "alt_km": 781.3209498185761, "timestamp": "2025-12-10T09:57:44.361532+00:00", "meta": {"OBJECT_NAME": "CBERS 4", "OBJECT_ID": "2014-079A", "EPOCH": "2025-12-10T05:10:44.274144", "MEAN_MOTION": 14.3551631, "ECCENTRICITY": 0.0001591, "INCLINATION": 98.3307, "RA_OF_ASC_NODE": 42.3188, "ARG_OF_PERICENTER": 115.036, "MEAN_ANOMALY": 245.0991, "EPHEMERIS_TYPE": 0, "CLASSIFICATION_TYPE": "U", "NORAD_CAT_ID": 40336, "ELEMENT_SET_NO": 999, "REV_AT_EPOCH": 57684, "BSTAR": 9.7241e-05, "MEAN_MOTION_DOT": 2.38e-06, "MEAN_MOTION_DDOT": 0}, "tle": {"line1": "1 40336U 14079A   25344.21579021  .00000238  00000+0  97241-4 0  9991", "line2": "2 40336  98.3307  42.3188 0001591 115.0360 245.0991 14.35516310576845"}}, "geometry": {"type": "Point", "coordinates": [52.50619479168178, -49.8278063729953]}}, {"type": "Feature", "properties": {"norad_id": 40362, "name": "YAOGAN-26", "group": "resource", "lat": 61.98899240387797, "lon": 178.65340448144218, "alt_km": 441.923344685295, "timestamp": "2025-12-10T09:57:44.361543+00:00", "meta": {"OBJECT_NAME": "YAOGAN-26", "OBJECT_ID": "2014-088A", "EPOCH": "2025-12-10T04:46:29.420832", "MEAN_MOTION": 15.39163306, "ECCENTRICITY": 0.0006607, "INCLINATION": 97.0649, "RA_OF_ASC_NODE": 344.9627, "ARG_OF_PERICENTER": 35.8838, "MEAN_ANOMALY": 324.2851, "EPHEMERIS_TYPE": 0, "CLASSIFICATION_TYPE": "U", "NORAD_CAT_ID": 40362, "ELEMENT_SET_NO": 999, "REV_AT_EPOCH": 60855, "BSTAR": 0.00087543, "MEAN_MOTION_DOT": 0.00034036, "MEAN_MOTION_DDOT": 0}, "tle": {"line1": "1 40362U 14088A   25344.19895163  .00034036  00000+0  87543-3 0  9991", "line2": "2 40362  97.0649 344.9627 0006607  35.8838 324.2851 15.39163306608557"}}, "geometry": {"type": "Point", "coordinates": [178.65340448144218, 61.98899240387797]}}, {"type": "Feature", "properties": {"norad_id": 40376, "name": "SMAP", "group": "resource", "lat": -77.28827108828936, "lon": 28.491877010999065, "alt_km": 690.5705643405072, "timestamp": "2025-12-10T09:57:44.361553+00:00", "meta": {"OBJECT_NAME": "SMAP", "OBJECT_ID": "2015-003A", "EPOCH": "2025-12-10T03:45:50.956992", "MEAN_MOTION": 14.6333959, "ECCENTRICITY": 0.0001202, "INCLINATION": 98.1291, "RA_OF_ASC_NODE": 348.9179, "ARG_OF_PERICENTER": 88.764, "MEAN_ANOMALY": 271.37, "EPHEMERIS_TYPE": 0, "CLASSIFICATION_TYPE": "U", "NORAD_CAT_ID": 40376, "ELEMENT_SET_NO": 999, "REV_AT_EPOCH": 57997, "BSTAR": 0.0001804, "MEAN_MOTION_DOT": 8.85e-06, "MEAN_MOTION_DDOT": 0}, "tle": {"line1": "1 40376U 15003A   25344.15683978  .00000885  00000+0  18040-3 0  9990", "line2": "2 40376  98.1291 348.9179 0001202  88.7640 271.3700 14.63339590579971"}}, "geometry": {"type": "Point", "coordinates": [28.491877010999065, -77.28827108828936]}}, {"type": "Feature", "properties": {"norad_id": 40536, "name": "KOMPSAT-3A", "group": "resource", "lat": 18.282597510785543, "lon": -43.92195859488573, "alt_km": 436.57309568323944, "timestamp": "2025-12-10T09:57:44.361564+00:00", "meta": {"OBJECT_NAME": "KOMPSAT-3A", "OBJECT_ID": "2015-014A", "EPOCH": "2025-12-10T03:39:36.465696", "MEAN_MOTION": 15.43793154, "ECCENTRICITY": 0.0004626, "INCLINATION": 97.6792, "RA_OF_ASC_NODE": 318.356, "ARG_OF_PERICENTER": 132.6026, "MEAN_ANOMALY": 227.5612, "EPHEMERIS_TYPE": 0, "CLASSIFICATION_TYPE": "U", "NORAD_CAT_ID": 40536, "ELEMENT_SET_NO": 999, "REV_AT_EPOCH": 59255, "BSTAR": 0.00058189, "MEAN_MOTION_DOT": 0.00026308, "MEAN_MOTION_DDOT": 0}, "tle": {"line1": "1 40536U 15014A   25344.15250539  .00026308  00000+0  58189-3 0  9999", "line2": "2 40536  97.6792 318.3560 0004626 132.6026 227.5612 15.43793154592557"}}, "geometry": {"type": "Point", "coordinates": [-43.92195859488573, 18.282597510785543]}}]}